[{"OBJECT_NAME":"STARLINK-5731","OBJECT_ID":"2023-083BA","EPOCH":"2026-03-09T08:32:43.041408","MEAN_MOTION":15.02773384,"ECCENTRICITY":0.0004484,"INCLINATION":43.0043,"RA_OF_ASC_NODE":70.2888,"ARG_OF_PERICENTER":152.1255,"MEAN_ANOMALY":207.9829,"EPHEMERIS_TYPE":0,"CLASSIFICATION_TYPE":"U","NORAD_CAT_ID":56924,"ELEMENT_SET_NO":999,"REV_AT_EPOCH":15188,"BSTAR":0.0021362646,"MEAN_MOTION_DOT":0.0002896,"MEAN_MOTION_DDOT":0},{"OBJECT_NAME":"PEGASUS DEB","OBJECT_ID":"1994-029WD","EPOCH":"2026-03-09T21:43:57.366912","MEAN_MOTION":14.89136591,"ECCENTRICITY":0.01058593,"INCLINATION":81.9743,"RA_OF_ASC_NODE":221.1497,"ARG_OF_PERICENTER":252.4191,"MEAN_ANOMALY":235.9905,"EPHEMERIS_TYPE":0,"CLASSIFICATION_TYPE":"U","NORAD_CAT_ID":24529,"ELEMENT_SET_NO":999,"REV_AT_EPOCH":23750,"BSTAR":0.00030874262,"MEAN_MOTION_DOT":3.26e-5,"MEAN_MOTION_DDOT":0}]
